OBJECT_NAME,OBJECT_ID,EPOCH,MEAN_MOTION,ECCENTRICITY,INCLINATION,RA_OF_ASC_NODE,ARG_OF_PERICENTER,MEAN_ANOMALY,EPHEMERIS_TYPE,CLASSIFICATION_TYPE,NORAD_CAT_ID,ELEMENT_SET_NO,REV_AT_EPOCH,BSTAR,MEAN_MOTION_DOT,MEAN_MOTION_DDOT
STARLINK-2639,2021-040J,2025-10-13T22:23:43.669248,15.06403733,.00013373,53.0529,120.4326,85.8728,274.2414,0,U,48436,999,24450,.51339668E-4,.483E-5,0
STARLINK-2642,2021-040K,2025-10-13T22:01:10.446528,15.06402040,.00013017,53.0528,130.5048,85.3354,274.7784,0,U,48437,999,24436,.43927197E-3,.6268E-4,0
STARLINK-2640,2021-040L,2025-10-13T22:55:37.383456,15.06406769,.00014617,53.0533,120.6003,99.0172,261.0982,0,U,48438,999,24450,.1469897E-3,.1909E-4,0
STARLINK-2583,2021-040M,2025-10-13T22:13:06.611808,15.06410694,.00013341,53.0530,120.4680,87.0367,273.0775,0,U,48439,999,24450,.21723466E-3,.2957E-4,0
STARLINK-2682,2021-040N,2025-10-13T22:07:48.772128,15.06390475,.00013712,53.0522,120.4834,91.6730,268.4416,0,U,48440,999,24450,.22907251E-3,.3131E-4,0
STARLINK-2702,2021-040P,2025-10-13T22:02:29.304672,15.06406441,.00014918,53.0520,120.5003,93.7573,266.3587,0,U,48441,999,24450,.16230279E-3,.2137E-4,0
STARLINK-2644,2021-040Q,2025-10-13T21:57:13.359744,15.06394054,.00013881,53.0528,120.5163,90.9006,269.2142,0,U,48442,999,24450,.46607161E-3,.6666E-4,0
STARLINK-2663,2021-040R,2025-10-13T21:51:53.115552,15.06405155,.00013643,53.0539,120.5359,91.0597,269.0549,0,U,48443,999,24450,.11599101E-4,-.109E-5,0
STARLINK-2645,2021-040S,2025-10-13T23:22:07.341312,15.06387613,.00013973,53.0538,120.2506,92.4552,267.6597,0,U,48444,999,24451,-.18659031E-3,-.3059E-4,0
STARLINK-2634,2021-040T,2025-10-13T23:16:46.009344,15.06427796,.00014251,53.0538,120.2682,93.4664,266.6488,0,U,48445,999,24451,.20951953E-3,.2843E-4,0
STARLINK-2655,2021-040X,2025-10-13T23:00:52.492896,15.06415125,.00009985,53.0531,120.3175,90.9657,269.1447,0,U,48449,999,24451,.11141551E-3,.1379E-4,0
STARLINK-2660,2021-040Y,2025-10-14T00:00:04.999968,15.22286060,.00013568,53.0543,119.6241,108.4456,37.7696,0,U,48450,999,580,.79532899E-1,.2064985E-1,0
STARLINK-2703,2021-040AA,2025-10-13T22:50:15.452736,15.06407364,.00014074,53.0537,120.3210,94.9093,265.2057,0,U,48452,999,24451,.99488877E-4,.1201E-4,0
STARLINK-2620,2021-040AB,2025-10-13T22:44:58.880544,15.06400474,.00013407,53.0532,120.3666,86.2940,273.8203,0,U,48453,999,24451,.19419711E-3,.2612E-4,0
STARLINK-2654,2021-040AC,2025-10-13T22:39:41.503104,15.06383848,.00014356,53.0523,120.3836,86.4792,273.6361,0,U,48454,999,24451,.62395442E-3,.902E-4,0
STARLINK-2497,2021-040AD,2025-10-13T22:34:21.014400,15.06403357,.00013824,53.0535,120.4005,88.2625,271.8522,0,U,48455,999,24450,.30735392E-4,.176E-5,0
STARLINK-2698,2021-040AG,2025-10-13T22:46:57.882720,15.06408755,.00014053,53.0539,125.4488,91.8022,268.3128,0,U,48458,999,24515,.24108797E-4,.78E-6,0
STARLINK-2579,2021-040AH,2025-10-13T22:36:23.695488,15.06411325,.00013708,53.0528,125.7521,90.8345,269.2802,0,U,48459,999,24444,.1684038E-3,.2229E-4,0
STARLINK-2582,2021-040AJ,2025-10-13T21:22:25.870944,15.27980060,.00074678,53.0708,104.7401,169.8318,190.2833,0,U,48460,999,24524,.71006627E-3,.19356E-3,0
STARLINK-2683,2021-040AL,2025-10-13T22:59:36.687264,15.06405322,.00011954,53.0538,130.6023,86.0747,274.0378,0,U,48462,999,24437,.2306753E-4,.62E-6,0
STARLINK-2686,2021-040AN,2025-10-13T22:38:19.181184,15.06407358,.00014348,53.0536,130.3881,88.0793,272.0360,0,U,48464,999,24437,.53286473E-4,.512E-5,0
STARLINK-2681,2021-040AP,2025-10-13T22:54:15.104736,15.06397514,.00014447,53.0539,130.3378,88.4500,271.6655,0,U,48465,999,24438,.45165393E-4,.391E-5,0
STARLINK-2687,2021-040AQ,2025-10-13T20:57:28.558944,15.06410051,.00012151,53.0530,130.7040,91.1487,268.9641,0,U,48466,999,24437,.10304413E-3,.1254E-4,0
STARLINK-2659,2021-040AR,2025-10-13T23:10:11.026560,15.06402999,.00014727,53.0525,130.2899,89.9334,270.1824,0,U,48467,999,24438,.31667181E-3,.4439E-4,0
STARLINK-2685,2021-040AS,2025-10-13T22:43:36.754752,15.06420194,.00016251,53.0554,130.3728,91.7573,268.3603,0,U,48468,999,24438,.20591464E-3,.2788E-4,0
STARLINK-2661,2021-040AT,2025-10-13T23:04:52.055904,15.06404503,.00014194,53.0536,130.3060,92.9641,267.1510,0,U,48469,999,24438,.36468105E-4,.262E-5,0
STARLINK-2675,2021-040AU,2025-10-13T22:11:51.191520,15.06405903,.00013972,53.0528,130.8164,92.2073,267.9076,0,U,48470,999,24436,.10920465E-3,.1346E-4,0
STARLINK-2684,2021-040AV,2025-10-13T22:48:58.842720,15.06376529,.00013545,53.0537,130.3560,105.7840,254.3299,0,U,48471,999,24437,-.21966469E-3,-.355E-4,0
STARLINK-2722,2021-040AW,2025-10-13T20:46:51.733920,15.06414495,.00015825,53.0544,130.7376,90.7959,269.3211,0,U,48472,999,24435,.1042869E-3,.1273E-4,0
STARLINK-2658,2021-040AX,2025-10-13T23:15:29.097792,15.06404819,.00015629,53.0520,130.2724,88.9035,271.2133,0,U,48473,999,24437,.36807146E-3,.5206E-4,0
