STARLINK-2639           
1 48436U 21040J   25286.93314432  .00000483  00000+0  51340-4 0  9995
2 48436  53.0529 120.4326 0001337  85.8728 274.2414 15.06403733244502
STARLINK-2642           
1 48437U 21040K   25286.91748202  .00006268  00000+0  43927-3 0  9998
2 48437  53.0528 130.5048 0001301  85.3354 274.7784 15.06402040244365
STARLINK-2640           
1 48438U 21040L   25286.95529379  .00001909  00000+0  14699-3 0  9996
2 48438  53.0533 120.6003 0001461  99.0172 261.0982 15.06406769244507
STARLINK-2583           
1 48439U 21040M   25286.92577097  .00002957  00000+0  21723-3 0  9994
2 48439  53.0530 120.4680 0001334  87.0367 273.0775 15.06410694244501
STARLINK-2682           
1 48440U 21040N   25286.92209227  .00003131  00000+0  22907-3 0  9993
2 48440  53.0522 120.4834 0001371  91.6730 268.4416 15.06390475244505
STARLINK-2702           
1 48441U 21040P   25286.91839473  .00002137  00000+0  16230-3 0  9992
2 48441  53.0520 120.5003 0001491  93.7573 266.3587 15.06406441244501
STARLINK-2644           
1 48442U 21040Q   25286.91473796  .00006666  00000+0  46607-3 0  9997
2 48442  53.0528 120.5163 0001388  90.9006 269.2142 15.06394054244507
STARLINK-2663           
1 48443U 21040R   25286.91103143 -.00000109  00000+0  11599-4 0  9994
2 48443  53.0539 120.5359 0001364  91.0597 269.0549 15.06405155244502
STARLINK-2645           
1 48444U 21040S   25286.97369608 -.00003059  00000+0 -18659-3 0  9992
2 48444  53.0538 120.2506 0001397  92.4552 267.6597 15.06387613244511
STARLINK-2634           
1 48445U 21040T   25286.96997696  .00002843  00000+0  20952-3 0  9993
2 48445  53.0538 120.2682 0001425  93.4664 266.6488 15.06427796244519
STARLINK-2655           
1 48449U 21040X   25286.95894089  .00001379  00000+0  11142-3 0  9992
2 48449  53.0531 120.3175 0000998  90.9657 269.1447 15.06415125244518
STARLINK-2660           
1 48450U 21040Y   25287.00005787  .02064985  00000+0  79533-1 0  9990
2 48450  53.0543 119.6241 0001356 108.4456  37.7696 15.22286060  5803
STARLINK-2703           
1 48452U 21040AA  25286.95156774  .00001201  00000+0  99489-4 0  9993
2 48452  53.0537 120.3210 0001407  94.9093 265.2057 15.06407364244512
STARLINK-2620           
1 48453U 21040AB  25286.94790371  .00002612  00000+0  19420-3 0  9993
2 48453  53.0532 120.3666 0001340  86.2940 273.8203 15.06400474244517
STARLINK-2654           
1 48454U 21040AC  25286.94423036  .00009020  00000+0  62395-3 0  9994
2 48454  53.0523 120.3836 0001435  86.4792 273.6361 15.06383848244517
STARLINK-2497           
1 48455U 21040AD  25286.94052100  .00000176  00000+0  30735-4 0  9992
2 48455  53.0535 120.4005 0001382  88.2625 271.8522 15.06403357244502
STARLINK-2698           
1 48458U 21040AG  25286.94928105  .00000078  00000+0  24109-4 0  9991
2 48458  53.0539 125.4488 0001405  91.8022 268.3128 15.06408755245158
STARLINK-2579           
1 48459U 21040AH  25286.94194092  .00002229  00000+0  16840-3 0  9994
2 48459  53.0528 125.7521 0001370  90.8345 269.2802 15.06411325244443
STARLINK-2582           
1 48460U 21040AJ  25286.89057721  .00019356  00000+0  71007-3 0  9992
2 48460  53.0708 104.7401 0007467 169.8318 190.2833 15.27980060245245
STARLINK-2683           
1 48462U 21040AL  25286.95806351  .00000062  00000+0  23068-4 0  9991
2 48462  53.0538 130.6023 0001195  86.0747 274.0378 15.06405322244372
STARLINK-2686           
1 48464U 21040AN  25286.94327756  .00000512  00000+0  53286-4 0  9994
2 48464  53.0536 130.3881 0001434  88.0793 272.0360 15.06407358244370
STARLINK-2681           
1 48465U 21040AP  25286.95434149  .00000391  00000+0  45165-4 0  9993
2 48465  53.0539 130.3378 0001444  88.4500 271.6655 15.06397514244381
STARLINK-2687           
1 48466U 21040AQ  25286.87324721  .00001254  00000+0  10304-3 0  9994
2 48466  53.0530 130.7040 0001215  91.1487 268.9641 15.06410051244379
STARLINK-2659           
1 48467U 21040AR  25286.96540540  .00004439  00000+0  31667-3 0  9997
2 48467  53.0525 130.2899 0001472  89.9334 270.1824 15.06402999244383
STARLINK-2685           
1 48468U 21040AS  25286.94695318  .00002788  00000+0  20591-3 0  9999
2 48468  53.0554 130.3728 0001625  91.7573 268.3603 15.06420194244385
STARLINK-2661           
1 48469U 21040AT  25286.96171361  .00000262  00000+0  36468-4 0  9995
2 48469  53.0536 130.3060 0001419  92.9641 267.1510 15.06404503244385
STARLINK-2675           
1 48470U 21040AU  25286.92489805  .00001346  00000+0  10920-3 0  9996
2 48470  53.0528 130.8164 0001397  92.2073 267.9076 15.06405903244363
STARLINK-2684           
1 48471U 21040AV  25286.95068105 -.00003550  00000+0 -21966-3 0  9999
2 48471  53.0537 130.3560 0001354 105.7840 254.3299 15.06376529244373
STARLINK-2722           
1 48472U 21040AW  25286.86587655  .00001273  00000+0  10429-3 0  9996
2 48472  53.0544 130.7376 0001582  90.7959 269.3211 15.06414495244351
STARLINK-2658           
1 48473U 21040AX  25286.96908678  .00005206  00000+0  36807-3 0  9998
2 48473  53.0520 130.2724 0001562  88.9035 271.2133 15.06404819244376
